{"type": "FeatureCollection", "features": [ {"type": "Feature", "properties": {"norad_id": 42741, "name": "EUTELSAT 172B", "group": "eutelsat", "lat": 0.004634453088428387, "lon": -148.63829855742318, "alt_km": 35787.69207311708, "timestamp": "2025-12-20T20:38:44.115332+00:00", "meta": {"OBJECT_NAME": "EUTELSAT 172B", "OBJECT_ID": "2017-029B", "EPOCH": "2025-12-20T11:32:38.877792", "MEAN_MOTION": 1.00270576, "ECCENTRICITY": 3.078e-05, "INCLINATION": 0.0366, "RA_OF_ASC_NODE": 126.084, "ARG_OF_PERICENTER": 270.789, "MEAN_ANOMALY": 37.6034, "EPHEMERIS_TYPE": 0, "CLASSIFICATION_TYPE": "U", "NORAD_CAT_ID": 42741, "ELEMENT_SET_NO": 999, "REV_AT_EPOCH": 3193, "BSTAR": 0, "MEAN_MOTION_DOT": 1.8e-07, "MEAN_MOTION_DDOT": 0}, "tle": {"line1": "1 42741U 17029B   25354.48100553  .00000018  00000+0  00000+0 0  9999", "line2": "2 42741   0.0366 126.0840 0000307 270.7890  37.6034  1.00270576 31936"}}, "geometry": {"type": "Point", "coordinates": [-148.63829855742318, 0.004634453088428387]}}, {"type": "Feature", "properties": {"norad_id": 44334, "name": "EUTELSAT 7C", "group": "eutelsat", "lat": -0.03204465462050838, "lon": 46.36226003045738, "alt_km": 35797.90979742396, "timestamp": "2025-12-20T20:38:44.115344+00:00", "meta": {"OBJECT_NAME": "EUTELSAT 7C", "OBJECT_ID": "2019-034B", "EPOCH": "2025-12-20T06:24:55.272960", "MEAN_MOTION": 1.00270763, "ECCENTRICITY": 0.00030526, "INCLINATION": 0.0729, "RA_OF_ASC_NODE": 179.1336, "ARG_OF_PERICENTER": 73.4447, "MEAN_ANOMALY": 299.7414, "EPHEMERIS_TYPE": 0, "CLASSIFICATION_TYPE": "U", "NORAD_CAT_ID": 44334, "ELEMENT_SET_NO": 999, "REV_AT_EPOCH": 504, "BSTAR": 0, "MEAN_MOTION_DOT": 7.2e-07, "MEAN_MOTION_DDOT": 0}, "tle": {"line1": "1 44334U 19034B   25354.26730640  .00000072  00000+0  00000+0 0  9999", "line2": "2 44334   0.0729 179.1336 0003052  73.4447 299.7414  1.00270763  5048"}}, "geometry": {"type": "Point", "coordinates": [46.36226003045738, -0.03204465462050838]}}, {"type": "Feature", "properties": {"norad_id": 44624, "name": "EUTELSAT 5 WEST B", "group": "eutelsat", "lat": 0.07508285396390595, "lon": 34.395990920355146, "alt_km": 35793.508115994904, "timestamp": "2025-12-20T20:38:44.115356+00:00", "meta": {"OBJECT_NAME": "EUTELSAT 5 WEST B", "OBJECT_ID": "2019-067A", "EPOCH": "2025-12-20T06:21:33.095232", "MEAN_MOTION": 1.00271304, "ECCENTRICITY": 0.00029967, "INCLINATION": 0.0675, "RA_OF_ASC_NODE": 334.6268, "ARG_OF_PERICENTER": 294.5893, "MEAN_ANOMALY": 270.2794, "EPHEMERIS_TYPE": 0, "CLASSIFICATION_TYPE": "U", "NORAD_CAT_ID": 44624, "ELEMENT_SET_NO": 999, "REV_AT_EPOCH": 2264, "BSTAR": 0, "MEAN_MOTION_DOT": -1.8e-07, "MEAN_MOTION_DDOT": 0}, "tle": {"line1": "1 44624U 19067A   25354.26496638 -.00000018  00000+0  00000+0 0  9994", "line2": "2 44624   0.0675 334.6268 0002996 294.5893 270.2794  1.00271304 22641"}}, "geometry": {"type": "Point", "coordinates": [34.395990920355146, 0.07508285396390595]}}, {"type": "Feature", "properties": {"norad_id": 45027, "name": "EUTELSAT KONNECT", "group": "eutelsat", "lat": -0.030629966188284043, "lon": 46.57418042341794, "alt_km": 35789.354819900465, "timestamp": "2025-12-20T20:38:44.115392+00:00", "meta": {"OBJECT_NAME": "EUTELSAT KONNECT", "OBJECT_ID": "2020-005B", "EPOCH": "2025-12-20T06:25:02.761248", "MEAN_MOTION": 1.00269751, "ECCENTRICITY": 0.00013058, "INCLINATION": 0.0718, "RA_OF_ASC_NODE": 94.8547, "ARG_OF_PERICENTER": 192.1408, "MEAN_ANOMALY": 265.5721, "EPHEMERIS_TYPE": 0, "CLASSIFICATION_TYPE": "U", "NORAD_CAT_ID": 45027, "ELEMENT_SET_NO": 999, "REV_AT_EPOCH": 2254, "BSTAR": 0, "MEAN_MOTION_DOT": 7.3e-07, "MEAN_MOTION_DDOT": 0}, "tle": {"line1": "1 45027U 20005B   25354.26739307  .00000073  00000+0  00000+0 0  9999", "line2": "2 45027   0.0718  94.8547 0001305 192.1408 265.5721  1.00269751 22549"}}, "geometry": {"type": "Point", "coordinates": [46.57418042341794, -0.030629966188284043]}}, {"type": "Feature", "properties": {"norad_id": 49056, "name": "EUTELSAT QUANTUM", "group": "eutelsat", "lat": 0.03843552477749543, "lon": 87.0765761937258, "alt_km": 35799.750204456104, "timestamp": "2025-12-20T20:38:44.115405+00:00", "meta": {"OBJECT_NAME": "EUTELSAT QUANTUM", "OBJECT_ID": "2021-069B", "EPOCH": "2025-12-20T13:27:29.799648", "MEAN_MOTION": 1.0027209, "ECCENTRICITY": 0.00033324, "INCLINATION": 0.0192, "RA_OF_ASC_NODE": 34.4183, "ARG_OF_PERICENTER": 245.1221, "MEAN_ANOMALY": 59.4319, "EPHEMERIS_TYPE": 0, "CLASSIFICATION_TYPE": "U", "NORAD_CAT_ID": 49056, "ELEMENT_SET_NO": 999, "REV_AT_EPOCH": 1613, "BSTAR": 0, "MEAN_MOTION_DOT": 1.49e-06, "MEAN_MOTION_DDOT": 0}, "tle": {"line1": "1 49056U 21069B   25354.56076157  .00000149  00000+0  00000+0 0  9990", "line2": "2 49056   0.0192  34.4183 0003332 245.1221  59.4319  1.00272090 16132"}}, "geometry": {"type": "Point", "coordinates": [87.0765761937258, 0.03843552477749543]}}, {"type": "Feature", "properties": {"norad_id": 53765, "name": "EUTELSAT KONNECT VHTS", "group": "eutelsat", "lat": -0.03098711353098943, "lon": 42.14158322392437, "alt_km": 35794.444862478296, "timestamp": "2025-12-20T20:38:44.115417+00:00", "meta": {"OBJECT_NAME": "EUTELSAT KONNECT VHTS", "OBJECT_ID": "2022-110A", "EPOCH": "2025-12-20T03:48:38.814048", "MEAN_MOTION": 1.00276689, "ECCENTRICITY": 0.00023926, "INCLINATION": 0.0642, "RA_OF_ASC_NODE": 98.8087, "ARG_OF_PERICENTER": 137.8855, "MEAN_ANOMALY": 272.2232, "EPHEMERIS_TYPE": 0, "CLASSIFICATION_TYPE": "U", "NORAD_CAT_ID": 53765, "ELEMENT_SET_NO": 999, "REV_AT_EPOCH": 503, "BSTAR": 0, "MEAN_MOTION_DOT": 4.2e-07, "MEAN_MOTION_DDOT": 0}, "tle": {"line1": "1 53765U 22110A   25354.15878257  .00000042  00000+0  00000+0 0  9998", "line2": "2 53765   0.0642  98.8087 0002392 137.8855 272.2232  1.00276689  5030"}}, "geometry": {"type": "Point", "coordinates": [42.14158322392437, -0.03098711353098943]}}, {"type": "Feature", "properties": {"norad_id": 54048, "name": "EUTELSAT HOTBIRD 13F", "group": "eutelsat", "lat": 0.058988575137514446, "lon": 52.377925457651656, "alt_km": 35779.187672099695, "timestamp": "2025-12-20T20:38:44.115429+00:00", "meta": {"OBJECT_NAME": "EUTELSAT HOTBIRD 13F", "OBJECT_ID": "2022-134A", "EPOCH": "2025-12-20T04:43:57.443232", "MEAN_MOTION": 1.00272198, "ECCENTRICITY": 0.0002383, "INCLINATION": 0.0482, "RA_OF_ASC_NODE": 295.6006, "ARG_OF_PERICENTER": 68.8406, "MEAN_ANOMALY": 168.5765, "EPHEMERIS_TYPE": 0, "CLASSIFICATION_TYPE": "U", "NORAD_CAT_ID": 54048, "ELEMENT_SET_NO": 999, "REV_AT_EPOCH": 1158, "BSTAR": 0, "MEAN_MOTION_DOT": 1.11e-06, "MEAN_MOTION_DDOT": 0}, "tle": {"line1": "1 54048U 22134A   25354.19719263  .00000111  00000+0  00000+0 0  9991", "line2": "2 54048   0.0482 295.6006 0002383  68.8406 168.5765  1.00272198 11586"}}, "geometry": {"type": "Point", "coordinates": [52.377925457651656, 0.058988575137514446]}}, {"type": "Feature", "properties": {"norad_id": 54225, "name": "EUTELSAT HOTBIRD 13G", "group": "eutelsat", "lat": 0.024419399804790666, "lon": 52.33927368529227, "alt_km": 35789.74157795813, "timestamp": "2025-12-20T20:38:44.115441+00:00", "meta": {"OBJECT_NAME": "EUTELSAT HOTBIRD 13G", "OBJECT_ID": "2022-146A", "EPOCH": "2025-12-19T18:27:37.056960", "MEAN_MOTION": 1.0027241, "ECCENTRICITY": 0.00017892, "INCLINATION": 0.0515, "RA_OF_ASC_NODE": 225.8744, "ARG_OF_PERICENTER": 308.1908, "MEAN_ANOMALY": 204.4423, "EPHEMERIS_TYPE": 0, "CLASSIFICATION_TYPE": "U", "NORAD_CAT_ID": 54225, "ELEMENT_SET_NO": 999, "REV_AT_EPOCH": 566, "BSTAR": 0, "MEAN_MOTION_DOT": 1.12e-06, "MEAN_MOTION_DDOT": 0}, "tle": {"line1": "1 54225U 22146A   25353.76917890  .00000112  00000+0  00000+0 0  9990", "line2": "2 54225   0.0515 225.8744 0001789 308.1908 204.4423  1.00272410  5660"}}, "geometry": {"type": "Point", "coordinates": [52.33927368529227, 0.024419399804790666]}}, {"type": "Feature", "properties": {"norad_id": 54259, "name": "EUTELSAT 10B", "group": "eutelsat", "lat": -0.02083386268771396, "lon": 49.366790518298664, "alt_km": 35783.801992088265, "timestamp": "2025-12-20T20:38:44.115452+00:00", "meta": {"OBJECT_NAME": "EUTELSAT 10B", "OBJECT_ID": "2022-157A", "EPOCH": "2025-12-20T03:00:22.363776", "MEAN_MOTION": 1.00274144, "ECCENTRICITY": 6.752e-05, "INCLINATION": 0.0606, "RA_OF_ASC_NODE": 97.5404, "ARG_OF_PERICENTER": 8.9249, "MEAN_ANOMALY": 37.5953, "EPHEMERIS_TYPE": 0, "CLASSIFICATION_TYPE": "U", "NORAD_CAT_ID": 54259, "ELEMENT_SET_NO": 999, "REV_AT_EPOCH": 1123, "BSTAR": 0, "MEAN_MOTION_DOT": 9.3e-07, "MEAN_MOTION_DDOT": 0}, "tle": {"line1": "1 54259U 22157A   25354.12525884  .00000093  00000+0  00000+0 0  9996", "line2": "2 54259   0.0606  97.5404 0000675   8.9249  37.5953  1.00274144 11230"}}, "geometry": {"type": "Point", "coordinates": [49.366790518298664, -0.02083386268771396]}}, {"type": "Feature", "properties": {"norad_id": 59346, "name": "EUTELSAT 36D", "group": "eutelsat", "lat": 0.04466511125172725, "lon": 75.21457070473812, "alt_km": 35784.69522691075, "timestamp": "2025-12-20T20:38:44.115464+00:00", "meta": {"OBJECT_NAME": "EUTELSAT 36D", "OBJECT_ID": "2024-059A", "EPOCH": "2025-12-19T22:17:14.700768", "MEAN_MOTION": 1.0027216, "ECCENTRICITY": 6.505e-05, "INCLINATION": 0.0247, "RA_OF_ASC_NODE": 22.0433, "ARG_OF_PERICENTER": 347.9809, "MEAN_ANOMALY": 88.8998, "EPHEMERIS_TYPE": 0, "CLASSIFICATION_TYPE": "U", "NORAD_CAT_ID": 59346, "ELEMENT_SET_NO": 999, "REV_AT_EPOCH": 635, "BSTAR": 0, "MEAN_MOTION_DOT": 0, "MEAN_MOTION_DDOT": 0}, "tle": {"line1": "1 59346U 24059A   25353.92864237  .00000000  00000+0  00000+0 0  9994", "line2": "2 59346   0.0247  22.0433 0000650 347.9809  88.8998  1.00272160  6350"}}, "geometry": {"type": "Point", "coordinates": [75.21457070473812, 0.04466511125172725]}}]}